ION SCV-008             
1 55051U 23001AU  26068.82429008  .00008336  00000+0  31423-3 0  9992
2 55051  97.5676 163.6060 0015192   8.5420 351.6074 15.27226640176169
STARLINK-33613          
1 63286U 25053X   26068.50771669  .00025374  00000+0  92726-3 0  9992
2 63286  42.9944 242.9737 0001356 287.6156  72.4548 15.27620712 56164
